ONEWEB-0168             
1 48068U 21025AC  23328.07125468 -.00000310  00000+0 -88343-3 0  9991
2 48068  87.8907 146.4986 0001656  84.7772 275.3546 13.13472147130670
ONEWEB-0173             
1 48069U 21025AD  23328.06490619 -.00000428  00000+0 -12063-2 0  9999
2 48069  87.8910 146.5158 0001647 110.3143 249.8163 13.13469634130910
ONEWEB-0171             
1 48070U 21025AE  23328.02259689  .00000341  00000+0  89931-3 0  9998
2 48070  87.8977 146.5472 0001428  99.3591 260.7699 13.13469187130722
ONEWEB-0172             
1 48071U 21025AF  23327.92840847 -.00000271  00000+0 -77590-3 0  9991
2 48071  87.8975 146.5336 0001444 101.5908 258.5383 13.13468349131608
ONEWEB-0174             
1 48072U 21025AG  23327.91043875 -.00000750  00000+0 -20882-2 0  9990
2 48072  87.8972 146.5514 0001804  85.4761 274.6574 13.13469570130923
ONEWEB-0175             
1 48073U 21025AH  23327.93794722  .00000153  00000+0  38508-3 0  9997
2 48073  87.8977 146.5424 0001081  93.4019 266.7233 13.13472674130586
ONEWEB-0177             
1 48074U 21025AJ  23327.87447720  .00000272  00000+0  71073-3 0  9990
2 48074  87.8981 146.5597 0001794 105.6229 254.5098 13.13467672130769
ONEWEB-0178             
1 48075U 21025AK  23328.04480819  .00000239  00000+0  61885-3 0  9990
2 48075  87.8990 146.5296 0001676  95.4805 264.6515 13.13467625130833
